start=new Date('2021-08-25T00:00:00.000Z').valueOf();
sats=[{"COUNTRY_CODE":"US","OBJECT_NAME":"STARLINK-1032","MEAN_MOTION_DDOT":"0.0000000000000","EPOCH":"2021-08-24T21:31:07.714848","PERIOD":"95.592","ELEMENT_SET_NO":"999","RA_OF_ASC_NODE":"88.7532","APOAPSIS":"548.790","TLE_LINE2":"2 44737  53.0545  88.7532 0002298  79.9075 280.2173 15.06404929 98606","PERIAPSIS":"545.607","MEAN_ELEMENT_THEORY":"SGP4","EPHEMERIS_TYPE":"0","ARG_OF_PERICENTER":"79.9075","TLE_LINE1":"1 44737U 19074AA  21236.89661707  .00000551  00000-0  55933-4 0  9994","REF_FRAME":"TEME","CENTER_NAME":"EARTH","LAUNCH_DATE":"2019-11-11","MEAN_ANOMALY":"280.2173","CLASSIFICATION_TYPE":"U","SEMIMAJOR_AXIS":"6925.333","GP_ID":"183383965","INCLINATION":"53.0545","TIME_SYSTEM":"UTC","OBJECT_ID":"2019-074AA","FILE":"3102580","NORAD_CAT_ID":"44737","MEAN_MOTION_DOT":"0.00000551","BSTAR":"0.00005593300000","SITE":"AFETR","REV_AT_EPOCH":"9860","RCS_SIZE":"LARGE","OBJECT_TYPE":"PAYLOAD","ECCENTRICITY":"0.00022980","DECAY_DATE":null,"MEAN_MOTION":"15.06404929"},{"PERIAPSIS":"545.703","APOAPSIS":"548.713","TLE_LINE2":"2 44738  53.0536  88.8092 0002173  87.1270 272.9968 15.06401779 98597","RA_OF_ASC_NODE":"88.8092","PERIOD":"95.592","EPOCH":"2021-08-24T21:09:54.189216","ELEMENT_SET_NO":"999","MEAN_MOTION_DDOT":"0.0000000000000","OBJECT_NAME":"STARLINK-1033","COUNTRY_CODE":"US","DECAY_DATE":null,"MEAN_MOTION":"15.06401779","RCS_SIZE":"LARGE","REV_AT_EPOCH":"9859","OBJECT_TYPE":"PAYLOAD","ECCENTRICITY":"0.00021730","BSTAR":"0.00005509700000","SITE":"AFETR","MEAN_MOTION_DOT":"0.00000539","NORAD_CAT_ID":"44738","OBJECT_ID":"2019-074AB","FILE":"3102580","TIME_SYSTEM":"UTC","INCLINATION":"53.0536","CLASSIFICATION_TYPE":"U","GP_ID":"183384715","SEMIMAJOR_AXIS":"6925.343","MEAN_ANOMALY":"272.9968","LAUNCH_DATE":"2019-11-11","CENTER_NAME":"EARTH","REF_FRAME":"TEME","ARG_OF_PERICENTER":"87.1270","TLE_LINE1":"1 44738U 19074AB  21236.88187719  .00000539  00000-0  55097-4 0  9997","EPHEMERIS_TYPE":"0","MEAN_ELEMENT_THEORY":"SGP4"},{"EPHEMERIS_TYPE":"0","MEAN_ELEMENT_THEORY":"SGP4","REF_FRAME":"TEME","ARG_OF_PERICENTER":"92.2248","TLE_LINE1":"1 44739U 19074AC  21236.85238122  .00002935  00000-0  21115-3 0  9995","MEAN_ANOMALY":"267.8970","LAUNCH_DATE":"2019-11-11","CENTER_NAME":"EARTH","INCLINATION":"52.9990","TIME_SYSTEM":"UTC","CLASSIFICATION_TYPE":"U","GP_ID":"183384967","SEMIMAJOR_AXIS":"6922.758","MEAN_MOTION_DOT":"0.00002935","NORAD_CAT_ID":"44739","OBJECT_ID":"2019-074AC","FILE":"3102580","RCS_SIZE":"LARGE","REV_AT_EPOCH":"9859","ECCENTRICITY":"0.00020060","OBJECT_TYPE":"PAYLOAD","BSTAR":"0.00021115000000","SITE":"AFETR","DECAY_DATE":null,"MEAN_MOTION":"15.07245543","COUNTRY_CODE":"US","OBJECT_NAME":"STARLINK-1034","MEAN_MOTION_DDOT":"0.0000000000000","RA_OF_ASC_NODE":"87.2293","EPOCH":"2021-08-24T20:27:25.737408","PERIOD":"95.539","ELEMENT_SET_NO":"999","APOAPSIS":"546.012","TLE_LINE2":"2 44739  52.9990  87.2293 0002006  92.2248 267.8970 15.07245543 98595","PERIAPSIS":"543.235"},{"MEAN_MOTION_DDOT":"0.0000000000000","OBJECT_NAME":"STARLINK-1035","COUNTRY_CODE":"US","TLE_LINE2":"2 44740  53.0545  88.7577 0002275  86.8011 273.3238 15.06389376 98604","APOAPSIS":"548.822","PERIAPSIS":"545.671","EPOCH":"2021-08-24T21:25:50.226816","PERIOD":"95.593","ELEMENT_SET_NO":"999","RA_OF_ASC_NODE":"88.7577","TLE_LINE1":"1 44740U 19074AD  21236.89294244  .00000511  00000-0  53244-4 0  9995","ARG_OF_PERICENTER":"86.8011","REF_FRAME":"TEME","CENTER_NAME":"EARTH","LAUNCH_DATE":"2019-11-11","MEAN_ANOMALY":"273.3238","MEAN_ELEMENT_THEORY":"SGP4","EPHEMERIS_TYPE":"0","SITE":"AFETR","BSTAR":"0.00005324400000","OBJECT_TYPE":"PAYLOAD","ECCENTRICITY":"0.00022750","RCS_SIZE":"LARGE","REV_AT_EPOCH":"9860","MEAN_MOTION":"15.06389376","DECAY_DATE":null,"SEMIMAJOR_AXIS":"6925.381","GP_ID":"183385717","CLASSIFICATION_TYPE":"U","TIME_SYSTEM":"UTC","INCLINATION":"53.0545","FILE":"3102580","OBJECT_ID":"2019-074AD","NORAD_CAT_ID":"44740","MEAN_MOTION_DOT":"0.00000511"},{"RA_OF_ASC_NODE":"88.7124","EPOCH":"2021-08-24T21:41:45.666528","PERIOD":"95.593","ELEMENT_SET_NO":"999","PERIAPSIS":"545.825","TLE_LINE2":"2 44741  53.0564  88.7124 0002035  91.4400 268.6822 15.06393109 98607","APOAPSIS":"548.644","COUNTRY_CODE":"US","MEAN_MOTION_DDOT":"0.0000000000000","OBJECT_NAME":"STARLINK-1036","NORAD_CAT_ID":"44741","MEAN_MOTION_DOT":"-0.00000900","FILE":"3102580","OBJECT_ID":"2019-074AE","TIME_SYSTEM":"UTC","INCLINATION":"53.0564","SEMIMAJOR_AXIS":"6925.370","GP_ID":"183384465","CLASSIFICATION_TYPE":"U","MEAN_MOTION":"15.06393109","DECAY_DATE":null,"ECCENTRICITY":"0.00020350","OBJECT_TYPE":"PAYLOAD","REV_AT_EPOCH":"9860","RCS_SIZE":"LARGE","SITE":"AFETR","BSTAR":"-0.00004153200000","EPHEMERIS_TYPE":"0","MEAN_ELEMENT_THEORY":"SGP4","MEAN_ANOMALY":"268.6822","CENTER_NAME":"EARTH","LAUNCH_DATE":"2019-11-11","REF_FRAME":"TEME","TLE_LINE1":"1 44741U 19074AE  21236.90400077 -.00000900  00000-0 -41532-4 0  9992","ARG_OF_PERICENTER":"91.4400"},{"TLE_LINE1":"1 44742U 19074AF  21236.87494206  .00001930  00000-0  14119-3 0  9998","ARG_OF_PERICENTER":"72.0432","REF_FRAME":"TEME","CENTER_NAME":"EARTH","LAUNCH_DATE":"2019-11-11","MEAN_ANOMALY":"288.0670","MEAN_ELEMENT_THEORY":"SGP4","EPHEMERIS_TYPE":"0","SITE":"AFETR","BSTAR":"0.00014119000000","OBJECT_TYPE":"PAYLOAD","ECCENTRICITY":"0.00010310","REV_AT_EPOCH":"9864","RCS_SIZE":"LARGE","MEAN_MOTION":"15.08335276","DECAY_DATE":null,"SEMIMAJOR_AXIS":"6919.424","GP_ID":"183384216","CLASSIFICATION_TYPE":"U","INCLINATION":"52.9975","TIME_SYSTEM":"UTC","FILE":"3102580","OBJECT_ID":"2019-074AF","MEAN_MOTION_DOT":"0.00001930","NORAD_CAT_ID":"44742","OBJECT_NAME":"STARLINK-1037","MEAN_MOTION_DDOT":"0.0000000000000","COUNTRY_CODE":"US","TLE_LINE2":"2 44742  52.9975  84.1349 0001031  72.0432 288.0670 15.08335276 98640","APOAPSIS":"542.002","PERIAPSIS":"540.575","PERIOD":"95.469","ELEMENT_SET_NO":"999","EPOCH":"2021-08-24T20:59:54.993984","RA_OF_ASC_NODE":"84.1349"},{"OBJECT_ID":"2019-074AG","FILE":"3102580","MEAN_MOTION_DOT":"0.00000674","NORAD_CAT_ID":"44743","CLASSIFICATION_TYPE":"U","GP_ID":"183385467","SEMIMAJOR_AXIS":"6925.350","TIME_SYSTEM":"UTC","INCLINATION":"53.0551","DECAY_DATE":null,"MEAN_MOTION":"15.06399471","BSTAR":"0.00006414400000","SITE":"AFETR","RCS_SIZE":"LARGE","REV_AT_EPOCH":"9841","ECCENTRICITY":"0.00020120","OBJECT_TYPE":"PAYLOAD","MEAN_ELEMENT_THEORY":"SGP4","EPHEMERIS_TYPE":"0","CENTER_NAME":"EARTH","LAUNCH_DATE":"2019-11-11","MEAN_ANOMALY":"284.0313","ARG_OF_PERICENTER":"76.0900","TLE_LINE1":"1 44743U 19074AG  21236.88739924  .00000674  00000-0  64144-4 0  9997","REF_FRAME":"TEME","PERIOD":"95.592","ELEMENT_SET_NO":"999","EPOCH":"2021-08-24T21:17:51.294336","RA_OF_ASC_NODE":"108.7948","PERIAPSIS":"545.822","APOAPSIS":"548.609","TLE_LINE2":"2 44743  53.0551 108.7948 0002012  76.0900 284.0313 15.06399471 98415","COUNTRY_CODE":"US","MEAN_MOTION_DDOT":"0.0000000000000","OBJECT_NAME":"STARLINK-1038"},{"REF_FRAME":"TEME","TLE_LINE1":"1 44744U 19074AH  21236.89846091  .00000616  00000-0  60267-4 0  9991","ARG_OF_PERICENTER":"70.7353","MEAN_ANOMALY":"289.3850","CENTER_NAME":"EARTH","LAUNCH_DATE":"2019-11-11","EPHEMERIS_TYPE":"0","MEAN_ELEMENT_THEORY":"SGP4","ECCENTRICITY":"0.00019830","OBJECT_TYPE":"PAYLOAD","REV_AT_EPOCH":"9832","RCS_SIZE":"LARGE","SITE":"AFETR","BSTAR":"0.00006026700000","MEAN_MOTION":"15.06396888","DECAY_DATE":null,"INCLINATION":"53.0561","TIME_SYSTEM":"UTC","GP_ID":"183385218","SEMIMAJOR_AXIS":"6925.358","CLASSIFICATION_TYPE":"U","NORAD_CAT_ID":"44744","MEAN_MOTION_DOT":"0.00000616","FILE":"3102580","OBJECT_ID":"2019-074AH","MEAN_MOTION_DDOT":"0.0000000000000","OBJECT_NAME":"STARLINK-1039","COUNTRY_CODE":"US","TLE_LINE2":"2 44744  53.0561 108.7366 0001983  70.7353 289.3850 15.06396888 98323","APOAPSIS":"548.596","PERIAPSIS":"545.850","RA_OF_ASC_NODE":"108.7366","ELEMENT_SET_NO":"999","PERIOD":"95.592","EPOCH":"2021-08-24T21:33:47.022624"},{"OBJECT_NAME":"STARLINK-1041","MEAN_MOTION_DDOT":"0.0000000000000","COUNTRY_CODE":"US","PERIAPSIS":"545.754","TLE_LINE2":"2 44746  53.0537 108.4951 0002130  78.8462 281.2767 15.06394802 98333","APOAPSIS":"548.705","RA_OF_ASC_NODE":"108.4951","EPOCH":"2021-08-24T22:48:05.824224","PERIOD":"95.592","ELEMENT_SET_NO":"999","MEAN_ANOMALY":"281.2767","CENTER_NAME":"EARTH","LAUNCH_DATE":"2019-11-11","REF_FRAME":"TEME","TLE_LINE1":"1 44746U 19074AK  21236.95006741  .00000577  00000-0  57680-4 0  9991","ARG_OF_PERICENTER":"78.8462","EPHEMERIS_TYPE":"0","MEAN_ELEMENT_THEORY":"SGP4","MEAN_MOTION":"15.06394802","DECAY_DATE":null,"OBJECT_TYPE":"PAYLOAD","ECCENTRICITY":"0.00021300","RCS_SIZE":"LARGE","REV_AT_EPOCH":"9833","SITE":"AFETR","BSTAR":"0.00005768000000","NORAD_CAT_ID":"44746","MEAN_MOTION_DOT":"0.00000577","FILE":"3102580","OBJECT_ID":"2019-074AK","INCLINATION":"53.0537","TIME_SYSTEM":"UTC","SEMIMAJOR_AXIS":"6925.364","GP_ID":"183383966","CLASSIFICATION_TYPE":"U"},{"DECAY_DATE":null,"MEAN_MOTION":"15.06389371","BSTAR":"0.00005961500000","SITE":"AFETR","REV_AT_EPOCH":"9833","RCS_SIZE":"LARGE","OBJECT_TYPE":"PAYLOAD","ECCENTRICITY":"0.00020400","OBJECT_ID":"2019-074AL","FILE":"3102580","NORAD_CAT_ID":"44747","MEAN_MOTION_DOT":"0.00000606","CLASSIFICATION_TYPE":"U","GP_ID":"183384716","SEMIMAJOR_AXIS":"6925.381","TIME_SYSTEM":"UTC","INCLINATION":"53.0549","LAUNCH_DATE":"2019-11-11","CENTER_NAME":"EARTH","MEAN_ANOMALY":"283.9203","ARG_OF_PERICENTER":"76.2013","TLE_LINE1":"1 44747U 19074AL  21236.91321383  .00000606  00000-0  59615-4 0  9993","REF_FRAME":"TEME","MEAN_ELEMENT_THEORY":"SGP4","EPHEMERIS_TYPE":"0","PERIAPSIS":"545.833","APOAPSIS":"548.659","TLE_LINE2":"2 44747  53.0549 108.6790 0002040  76.2013 283.9203 15.06389371 98333","PERIOD":"95.593","EPOCH":"2021-08-24T21:55:01.674912","ELEMENT_SET_NO":"999","RA_OF_ASC_NODE":"108.6790","OBJECT_NAME":"STARLINK-1042","MEAN_MOTION_DDOT":"0.0000000000000","COUNTRY_CODE":"US"}];
